{
  "type": "FeatureCollection",
  "features": [
    {
      "type": "Feature",
      "properties": {
        "norad_id": 34459,
        "name": "COSMOS 2251 DEB",
        "group": "cosmos-2251-debris",
        "lat": 57.974217584732195,
        "lon": 48.26885704803179,
        "alt_km": 1009.6860015797611,
        "timestamp": "2025-12-11T22:43:47.665048+00:00",
        "meta_object_name": "COSMOS 2251 DEB",
        "meta_object_id": "1993-036TC",
        "meta_epoch": "2025-12-11T11:52:51.727296",
        "meta_mean_motion": 14.00497208,
        "meta_eccentricity": 0.01920563,
        "meta_inclination": 74.0793,
        "meta_ra_of_asc_node": 256.1998,
        "meta_arg_of_pericenter": 326.2605,
        "meta_mean_anomaly": 32.6421,
        "meta_ephemeris_type": 0,
        "meta_classification_type": "U",
        "meta_norad_cat_id": 34459,
        "meta_element_set_no": 999,
        "meta_rev_at_epoch": 85694,
        "meta_bstar": 0.00083850226,
        "meta_mean_motion_dot": 1.436e-05,
        "meta_mean_motion_ddot": 0,
        "tle_line1": "1 34459U 93036TC  25345.49504314  .00001436  00000+0  83850-3 0  9995",
        "tle_line2": "2 34459  74.0793 256.1998 0192056 326.2605  32.6421 14.00497208856949"
      },
      "geometry": {
        "type": "Point",
        "coordinates": [
          48.26885704803179,
          57.974217584732195
        ]
      }
    },
    {
      "type": "Feature",
      "properties": {
        "norad_id": 34464,
        "name": "COSMOS 2251 DEB",
        "group": "cosmos-2251-debris",
        "lat": -68.89347208662767,
        "lon": -51.975207374510866,
        "alt_km": 480.87296248568964,
        "timestamp": "2025-12-11T22:43:47.665058+00:00",
        "meta_object_name": "COSMOS 2251 DEB",
        "meta_object_id": "1993-036TH",
        "meta_epoch": "2025-12-11T09:01:50.444256",
        "meta_mean_motion": 15.26756078,
        "meta_eccentricity": 0.00161263,
        "meta_inclination": 73.9889,
        "meta_ra_of_asc_node": 81.1694,
        "meta_arg_of_pericenter": 259.3082,
        "meta_mean_anomaly": 100.6303,
        "meta_ephemeris_type": 0,
        "meta_classification_type": "U",
        "meta_norad_cat_id": 34464,
        "meta_element_set_no": 999,
        "meta_rev_at_epoch": 89819,
        "meta_bstar": 0.0054428677,
        "meta_mean_motion_dot": 0.00146564,
        "meta_mean_motion_ddot": 0,
        "tle_line1": "1 34464U 93036TH  25345.37627829  .00146564  00000+0  54429-2 0  9996",
        "tle_line2": "2 34464  73.9889  81.1694 0016126 259.3082 100.6303 15.26756078898196"
      },
      "geometry": {
        "type": "Point",
        "coordinates": [
          -51.975207374510866,
          -68.89347208662767
        ]
      }
    },
    {
      "type": "Feature",
      "properties": {
        "norad_id": 34468,
        "name": "COSMOS 2251 DEB",
        "group": "cosmos-2251-debris",
        "lat": -12.250476422485553,
        "lon": 115.12054778137006,
        "alt_km": 731.0401888621145,
        "timestamp": "2025-12-11T22:43:47.665068+00:00",
        "meta_object_name": "COSMOS 2251 DEB",
        "meta_object_id": "1993-036TM",
        "meta_epoch": "2025-12-11T09:31:12.448704",
        "meta_mean_motion": 14.47620107,
        "meta_eccentricity": 0.0076344,
        "meta_inclination": 74.0129,
        "meta_ra_of_asc_node": 119.7202,
        "meta_arg_of_pericenter": 264.9202,
        "meta_mean_anomaly": 94.324,
        "meta_ephemeris_type": 0,
        "meta_classification_type": "U",
        "meta_norad_cat_id": 34468,
        "meta_element_set_no": 999,
        "meta_rev_at_epoch": 88442,
        "meta_bstar": 0.00063634607,
        "meta_mean_motion_dot": 2.403e-05,
        "meta_mean_motion_ddot": 0,
        "tle_line1": "1 34468U 93036TM  25345.39667186  .00002403  00000+0  63635-3 0  9995",
        "tle_line2": "2 34468  74.0129 119.7202 0076344 264.9202  94.3240 14.47620107884421"
      },
      "geometry": {
        "type": "Point",
        "coordinates": [
          115.12054778137006,
          -12.250476422485553
        ]
      }
    },
    {
      "type": "Feature",
      "properties": {
        "norad_id": 34472,
        "name": "COSMOS 2251 DEB",
        "group": "cosmos-2251-debris",
        "lat": -48.243381663167476,
        "lon": -61.911425595036974,
        "alt_km": 762.843240149713,
        "timestamp": "2025-12-11T22:43:47.665078+00:00",
        "meta_object_name": "COSMOS 2251 DEB",
        "meta_object_id": "1993-036TR",
        "meta_epoch": "2025-12-10T17:33:33.413472",
        "meta_mean_motion": 13.70324681,
        "meta_eccentricity": 0.03280455,
        "meta_inclination": 74.083,
        "meta_ra_of_asc_node": 101.446,
        "meta_arg_of_pericenter": 232.9036,
        "meta_mean_anomaly": 124.1688,
        "meta_ephemeris_type": 0,
        "meta_classification_type": "U",
        "meta_norad_cat_id": 34472,
        "meta_element_set_no": 999,
        "meta_rev_at_epoch": 83699,
        "meta_bstar": 0.0010864797,
        "meta_mean_motion_dot": 1.379e-05,
        "meta_mean_motion_ddot": 0,
        "tle_line1": "1 34472U 93036TR  25344.73163673  .00001379  00000+0  10865-2 0  9996",
        "tle_line2": "2 34472  74.0830 101.4460 0328045 232.9036 124.1688 13.70324681836997"
      },
      "geometry": {
        "type": "Point",
        "coordinates": [
          -61.911425595036974,
          -48.243381663167476
        ]
      }
    },
    {
      "type": "Feature",
      "properties": {
        "norad_id": 34474,
        "name": "COSMOS 2251 DEB",
        "group": "cosmos-2251-debris",
        "lat": -71.52257408190606,
        "lon": -153.76338421575173,
        "alt_km": 989.4411284608232,
        "timestamp": "2025-12-11T22:43:47.665088+00:00",
        "meta_object_name": "COSMOS 2251 DEB",
        "meta_object_id": "1993-036TT",
        "meta_epoch": "2025-12-11T10:06:20.708928",
        "meta_mean_motion": 14.06399858,
        "meta_eccentricity": 0.01982083,
        "meta_inclination": 74.0784,
        "meta_ra_of_asc_node": 328.4805,
        "meta_arg_of_pericenter": 42.6978,
        "meta_mean_anomaly": 77.0868,
        "meta_ephemeris_type": 0,
        "meta_classification_type": "U",
        "meta_norad_cat_id": 34474,
        "meta_element_set_no": 999,
        "meta_rev_at_epoch": 85490,
        "meta_bstar": 0.003114222,
        "meta_mean_motion_dot": 6.125e-05,
        "meta_mean_motion_ddot": 0,
        "tle_line1": "1 34474U 93036TT  25345.42107302  .00006125  00000+0  31142-2 0  9997",
        "tle_line2": "2 34474  74.0784 328.4805 0198208  42.6978  77.0868 14.06399858854903"
      },
      "geometry": {
        "type": "Point",
        "coordinates": [
          -153.76338421575173,
          -71.52257408190606
        ]
      }
    },
    {
      "type": "Feature",
      "properties": {
        "norad_id": 34476,
        "name": "COSMOS 2251 DEB",
        "group": "cosmos-2251-debris",
        "lat": -53.7168629754276,
        "lon": 60.842618728707265,
        "alt_km": 728.7950528726687,
        "timestamp": "2025-12-11T22:43:47.665098+00:00",
        "meta_object_name": "COSMOS 2251 DEB",
        "meta_object_id": "1993-036TV",
        "meta_epoch": "2025-12-09T17:08:07.616256",
        "meta_mean_motion": 13.81979993,
        "meta_eccentricity": 0.03198793,
        "meta_inclination": 74.0051,
        "meta_ra_of_asc_node": 87.6033,
        "meta_arg_of_pericenter": 307.827,
        "meta_mean_anomaly": 49.429,
        "meta_ephemeris_type": 0,
        "meta_classification_type": "U",
        "meta_norad_cat_id": 34476,
        "meta_element_set_no": 999,
        "meta_rev_at_epoch": 83596,
        "meta_bstar": 0.0043301307,
        "meta_mean_motion_dot": 6.851e-05,
        "meta_mean_motion_ddot": 0,
        "tle_line1": "1 34476U 93036TV  25343.71397704  .00006851  00000+0  43301-2 0  9992",
        "tle_line2": "2 34476  74.0051  87.6033 0319879 307.8270  49.4290 13.81979993835962"
      },
      "geometry": {
        "type": "Point",
        "coordinates": [
          60.842618728707265,
          -53.7168629754276
        ]
      }
    },
    {
      "type": "Feature",
      "properties": {
        "norad_id": 34477,
        "name": "COSMOS 2251 DEB",
        "group": "cosmos-2251-debris",
        "lat": -14.513614368462365,
        "lon": 66.74642166081792,
        "alt_km": 704.1083041218471,
        "timestamp": "2025-12-11T22:43:47.665109+00:00",
        "meta_object_name": "COSMOS 2251 DEB",
        "meta_object_id": "1993-036TW",
        "meta_epoch": "2025-12-11T08:15:25.533792",
        "meta_mean_motion": 14.56849599,
        "meta_eccentricity": 0.00768957,
        "meta_inclination": 73.9789,
        "meta_ra_of_asc_node": 72.1607,
        "meta_arg_of_pericenter": 259.5799,
        "meta_mean_anomaly": 163.1164,
        "meta_ephemeris_type": 0,
        "meta_classification_type": "U",
        "meta_norad_cat_id": 34477,
        "meta_element_set_no": 999,
        "meta_rev_at_epoch": 88605,
        "meta_bstar": 0.0015311907,
        "meta_mean_motion_dot": 7.12e-05,
        "meta_mean_motion_ddot": 0,
        "tle_line1": "1 34477U 93036TW  25345.34404553  .00007120  00000+0  15312-2 0  9996",
        "tle_line2": "2 34477  73.9789  72.1607 0076895 259.5799 163.1164 14.56849599886053"
      },
      "geometry": {
        "type": "Point",
        "coordinates": [
          66.74642166081792,
          -14.513614368462365
        ]
      }
    }
  ]
}